{
  "type": "FeatureCollection",
  "features": [
    {
      "type": "Feature",
      "properties": {
        "norad_id": 36744,
        "name": "COMS 1",
        "group": "weather",
        "lat": 2.7127687279132067,
        "lon": 115.85162348542913,
        "alt_km": 35789.92958338548,
        "timestamp": "2025-12-25T16:53:14.296216+00:00",
        "meta_object_name": "COMS 1",
        "meta_object_id": "2010-032A",
        "meta_epoch": "2025-12-24T22:38:51.746208",
        "meta_mean_motion": 1.00270195,
        "meta_eccentricity": 8.62e-05,
        "meta_inclination": 4.3676,
        "meta_ra_of_asc_node": 77.8605,
        "meta_arg_of_pericenter": 214.3795,
        "meta_mean_anomaly": 269.3601,
        "meta_ephemeris_type": 0,
        "meta_classification_type": "U",
        "meta_norad_cat_id": 36744,
        "meta_element_set_no": 999,
        "meta_rev_at_epoch": 4934,
        "meta_bstar": 0,
        "meta_mean_motion_dot": -3.25e-06,
        "meta_mean_motion_ddot": 0,
        "tle_line1": "1 36744U 10032A   25358.94365447 -.00000325  00000+0  00000+0 0  9994",
        "tle_line2": "2 36744   4.3676  77.8605 0000862 214.3795 269.3601  1.00270195 49344"
      },
      "geometry": {
        "type": "Point",
        "coordinates": [
          115.85162348542913,
          2.7127687279132067
        ]
      }
    },
    {
      "type": "Feature",
      "properties": {
        "norad_id": 37214,
        "name": "FENGYUN 3B",
        "group": "weather",
        "lat": 33.035663988523986,
        "lon": -134.32199817876423,
        "alt_km": 856.369085827012,
        "timestamp": "2025-12-25T16:53:14.296229+00:00",
        "meta_object_name": "FENGYUN 3B",
        "meta_object_id": "2010-059A",
        "meta_epoch": "2025-12-25T06:38:20.507136",
        "meta_mean_motion": 14.14793802,
        "meta_eccentricity": 0.00214949,
        "meta_inclination": 98.9886,
        "meta_ra_of_asc_node": 39.3403,
        "meta_arg_of_pericenter": 321.7074,
        "meta_mean_anomaly": 171.0548,
        "meta_ephemeris_type": 0,
        "meta_classification_type": "U",
        "meta_norad_cat_id": 37214,
        "meta_element_set_no": 999,
        "meta_rev_at_epoch": 78283,
        "meta_bstar": 0.0002139391,
        "meta_mean_motion_dot": 3.68e-06,
        "meta_mean_motion_ddot": 0,
        "tle_line1": "1 37214U 10059A   25359.27662624  .00000368  00000+0  21394-3 0  9999",
        "tle_line2": "2 37214  98.9886  39.3403 0021494 321.7074 171.0548 14.14793802782836"
      },
      "geometry": {
        "type": "Point",
        "coordinates": [
          -134.32199817876423,
          33.035663988523986
        ]
      }
    },
    {
      "type": "Feature",
      "properties": {
        "norad_id": 37849,
        "name": "SUOMI NPP",
        "group": "weather",
        "lat": -26.984964543096957,
        "lon": 112.41603575452604,
        "alt_km": 833.3621739036416,
        "timestamp": "2025-12-25T16:53:14.296242+00:00",
        "meta_object_name": "SUOMI NPP",
        "meta_object_id": "2011-061A",
        "meta_epoch": "2025-12-22T15:10:21.732672",
        "meta_mean_motion": 14.19516903,
        "meta_eccentricity": 0.00024883,
        "meta_inclination": 98.7787,
        "meta_ra_of_asc_node": 293.8852,
        "meta_arg_of_pericenter": 103.0781,
        "meta_mean_anomaly": 257.0673,
        "meta_ephemeris_type": 0,
        "meta_classification_type": "U",
        "meta_norad_cat_id": 37849,
        "meta_element_set_no": 999,
        "meta_rev_at_epoch": 73339,
        "meta_bstar": 6.3406935e-05,
        "meta_mean_motion_dot": 8.9e-07,
        "meta_mean_motion_ddot": 0,
        "tle_line1": "1 37849U 11061A   25356.63219598  .00000089  00000+0  63407-4 0  9994",
        "tle_line2": "2 37849  98.7787 293.8852 0002488 103.0781 257.0673 14.19516903733392"
      },
      "geometry": {
        "type": "Point",
        "coordinates": [
          112.41603575452604,
          -26.984964543096957
        ]
      }
    },
    {
      "type": "Feature",
      "properties": {
        "norad_id": 38552,
        "name": "METEOSAT-10 (MSG-3)",
        "group": "weather",
        "lat": -4.094823369980383,
        "lon": -11.910221043091576,
        "alt_km": 35782.23815519547,
        "timestamp": "2025-12-25T16:53:14.296255+00:00",
        "meta_object_name": "METEOSAT-10 (MSG-3)",
        "meta_object_id": "2012-035B",
        "meta_epoch": "2025-12-25T04:23:21.555168",
        "meta_mean_motion": 1.00266615,
        "meta_eccentricity": 0.00014693,
        "meta_inclination": 4.256,
        "meta_ra_of_asc_node": 61.6882,
        "meta_arg_of_pericenter": 266.4043,
        "meta_mean_anomaly": 191.9794,
        "meta_ephemeris_type": 0,
        "meta_classification_type": "U",
        "meta_norad_cat_id": 38552,
        "meta_element_set_no": 999,
        "meta_rev_at_epoch": 4911,
        "meta_bstar": 0,
        "meta_mean_motion_dot": 1.4e-07,
        "meta_mean_motion_ddot": 0,
        "tle_line1": "1 38552U 12035B   25359.18288837  .00000014  00000+0  00000+0 0  9996",
        "tle_line2": "2 38552   4.2560  61.6882 0001469 266.4043 191.9794  1.00266615 49110"
      },
      "geometry": {
        "type": "Point",
        "coordinates": [
          -11.910221043091576,
          -4.094823369980383
        ]
      }
    },
    {
      "type": "Feature",
      "properties": {
        "norad_id": 38771,
        "name": "METOP-B",
        "group": "weather",
        "lat": 31.841223929525942,
        "lon": -125.11594928155851,
        "alt_km": 816.6749233056435,
        "timestamp": "2025-12-25T16:53:14.296267+00:00",
        "meta_object_name": "METOP-B",
        "meta_object_id": "2012-049A",
        "meta_epoch": "2025-12-25T06:03:31.372416",
        "meta_mean_motion": 14.21413002,
        "meta_eccentricity": 0.00032731,
        "meta_inclination": 98.6781,
        "meta_ra_of_asc_node": 48.9981,
        "meta_arg_of_pericenter": 118.1061,
        "meta_mean_anomaly": 242.0447,
        "meta_ephemeris_type": 0,
        "meta_classification_type": "U",
        "meta_norad_cat_id": 38771,
        "meta_element_set_no": 999,
        "meta_rev_at_epoch": 68855,
        "meta_bstar": 7.9988924e-05,
        "meta_mean_motion_dot": 1.31e-06,
        "meta_mean_motion_ddot": 0,
        "tle_line1": "1 38771U 12049A   25359.25244644  .00000131  00000+0  79989-4 0  9997",
        "tle_line2": "2 38771  98.6781  48.9981 0003273 118.1061 242.0447 14.21413002688552"
      },
      "geometry": {
        "type": "Point",
        "coordinates": [
          -125.11594928155851,
          31.841223929525942
        ]
      }
    },
    {
      "type": "Feature",
      "properties": {
        "norad_id": 39216,
        "name": "INSAT-3D",
        "group": "weather",
        "lat": 0.8114618341596038,
        "lon": 117.28268924170447,
        "alt_km": 35789.906027076206,
        "timestamp": "2025-12-25T16:53:14.296280+00:00",
        "meta_object_name": "INSAT-3D",
        "meta_object_id": "2013-038B",
        "meta_epoch": "2025-12-25T01:49:38.587584",
        "meta_mean_motion": 1.00274291,
        "meta_eccentricity": 0.00019062,
        "meta_inclination": 1.4749,
        "meta_ra_of_asc_node": 84.8578,
        "meta_arg_of_pericenter": 156.5491,
        "meta_mean_anomaly": 9.3857,
        "meta_ephemeris_type": 0,
        "meta_classification_type": "U",
        "meta_norad_cat_id": 39216,
        "meta_element_set_no": 999,
        "meta_rev_at_epoch": 4533,
        "meta_bstar": 0,
        "meta_mean_motion_dot": -3.18e-06,
        "meta_mean_motion_ddot": 0,
        "tle_line1": "1 39216U 13038B   25359.07614106 -.00000318  00000+0  00000+0 0  9996",
        "tle_line2": "2 39216   1.4749  84.8578 0001906 156.5491   9.3857  1.00274291 45338"
      },
      "geometry": {
        "type": "Point",
        "coordinates": [
          117.28268924170447,
          0.8114618341596038
        ]
      }
    },
    {
      "type": "Feature",
      "properties": {
        "norad_id": 39260,
        "name": "FENGYUN 3C",
        "group": "weather",
        "lat": 51.06221289772101,
        "lon": 167.38847966235267,
        "alt_km": 825.8706746031557,
        "timestamp": "2025-12-25T16:53:14.296291+00:00",
        "meta_object_name": "FENGYUN 3C",
        "meta_object_id": "2013-052A",
        "meta_epoch": "2025-12-25T06:06:24.655392",
        "meta_mean_motion": 14.15700015,
        "meta_eccentricity": 0.00149826,
        "meta_inclination": 98.4779,
        "meta_ra_of_asc_node": 336.3236,
        "meta_arg_of_pericenter": 159.966,
        "meta_mean_anomaly": 200.2106,
        "meta_ephemeris_type": 0,
        "meta_classification_type": "U",
        "meta_norad_cat_id": 39260,
        "meta_element_set_no": 999,
        "meta_rev_at_epoch": 63395,
        "meta_bstar": 8.1406799e-05,
        "meta_mean_motion_dot": 1.19e-06,
        "meta_mean_motion_ddot": 0,
        "tle_line1": "1 39260U 13052A   25359.25445203  .00000119  00000+0  81407-4 0  9994",
        "tle_line2": "2 39260  98.4779 336.3236 0014982 159.9660 200.2106 14.15700015633953"
      },
      "geometry": {
        "type": "Point",
        "coordinates": [
          167.38847966235267,
          51.06221289772101
        ]
      }
    }
  ]
}